[
    {
        "Altitude(m)": 702878.9294815586,
        "Argument of Periapsis(deg)": 0.006834072711976239,
        "Eccentricity": 0.0,
        "Inclination(deg)": 45.0,
        "Latitude(deg)": 17.969719480938828,
        "Longitude(deg)": -9.2718545277877,
        "Mean Anomaly(deg)": -205.80737001151147,
        "RAAN(deg)": 289.9935488351251,
        "Satellite Name": "Constellation 1 1285",
        "Satellite Number": 1285,
        "Semi-Major Axis(m)": 7083131.272910544,
        "Time(s)": 114
    },
    {
        "Altitude(m)": 702876.3810570979,
        "Argument of Periapsis(deg)": 0.006894020718221645,
        "Eccentricity": 0.0,
        "Inclination(deg)": 45.0,
        "Latitude(deg)": 17.92883045816443,
        "Longitude(deg)": -9.228620569451211,
        "Mean Anomaly(deg)": -205.7466688712616,
        "RAAN(deg)": 289.99349224595954,
        "Satellite Name": "Constellation 1 1285",
        "Satellite Number": 1285,
        "Semi-Major Axis(m)": 7083131.272910544,
        "Time(s)": 115
    },
    {
        "Altitude(m)": 702873.848082958,
        "Argument of Periapsis(deg)": 0.006953968724467052,
        "Eccentricity": 0.0,
        "Inclination(deg)": 45.0,
        "Latitude(deg)": 17.887929767239935,
        "Longitude(deg)": -9.185408350433274,
        "Mean Anomaly(deg)": -205.68596773101177,
        "RAAN(deg)": 289.99343565679396,
        "Satellite Name": "Constellation 1 1285",
        "Satellite Number": 1285,
        "Semi-Major Axis(m)": 7083131.272910544,
        "Time(s)": 116
    },
    {
        "Altitude(m)": 702871.3305877567,
        "Argument of Periapsis(deg)": 0.007013916730712457,
        "Eccentricity": 0.0,
        "Inclination(deg)": 45.0,
        "Latitude(deg)": 17.847017441778636,
        "Longitude(deg)": -9.142217814083082,
        "Mean Anomaly(deg)": -205.62526659076178,
        "RAAN(deg)": 289.9933790676284,
        "Satellite Name": "Constellation 1 1285",
        "Satellite Number": 1285,
        "Semi-Major Axis(m)": 7083131.272910544,
        "Time(s)": 117
    },
    {
        "Altitude(m)": 702868.8286000574,
        "Argument of Periapsis(deg)": 0.007073864736957864,
        "Eccentricity": 0.0,
        "Inclination(deg)": 45.0,
        "Latitude(deg)": 17.80609351535127,
        "Longitude(deg)": -9.099048903780753,
        "Mean Anomaly(deg)": -205.56456545051194,
        "RAAN(deg)": 289.9933224784628,
        "Satellite Name": "Constellation 1 1285",
        "Satellite Number": 1285,
        "Semi-Major Axis(m)": 7083131.272910544,
        "Time(s)": 118
    },
    {
        "Altitude(m)": 702866.3421483535,
        "Argument of Periapsis(deg)": 0.0071338127432032696,
        "Eccentricity": 0.0,
        "Inclination(deg)": 45.0,
        "Latitude(deg)": 17.76515802148568,
        "Longitude(deg)": -9.055901731033932,
        "Mean Anomaly(deg)": -205.503864310262,
        "RAAN(deg)": 289.9932658892973,
        "Satellite Name": "Constellation 1 1285",
        "Satellite Number": 1285,
        "Semi-Major Axis(m)": 7083131.272910544,
        "Time(s)": 119
    },
    {
        "Altitude(m)": 702863.8712610952,
        "Argument of Periapsis(deg)": 0.007193760749448674,
        "Eccentricity": 0.0,
        "Inclination(deg)": 45.0,
        "Latitude(deg)": 17.724210993668088,
        "Longitude(deg)": -9.012775903090263,
        "Mean Anomaly(deg)": -205.44316317001216,
        "RAAN(deg)": 289.9932093001317,
        "Satellite Name": "Constellation 1 1285",
        "Satellite Number": 1285,
        "Semi-Major Axis(m)": 7083131.272910544,
        "Time(s)": 120
    },
    {
        "Altitude(m)": 702861.415966655,
        "Argument of Periapsis(deg)": 0.007253708755694079,
        "Eccentricity": 0.0,
        "Inclination(deg)": 45.0,
        "Latitude(deg)": 17.683252465341475,
        "Longitude(deg)": -8.96967153151876,
        "Mean Anomaly(deg)": -205.38246202976225,
        "RAAN(deg)": 289.9931527109661,
        "Satellite Name": "Constellation 1 1285",
        "Satellite Number": 1285,
        "Semi-Major Axis(m)": 7083131.272910544,
        "Time(s)": 121
    },
    {
        "Altitude(m)": 702858.9762933443,
        "Argument of Periapsis(deg)": 0.0073136567619394854,
        "Eccentricity": 0.0,
        "Inclination(deg)": 45.0,
        "Latitude(deg)": 17.642282469907055,
        "Longitude(deg)": -8.9265885598228,
        "Mean Anomaly(deg)": -205.32176088951232,
        "RAAN(deg)": 289.9930961218006,
        "Satellite Name": "Constellation 1 1285",
        "Satellite Number": 1285,
        "Semi-Major Axis(m)": 7083131.272910544,
        "Time(s)": 122
    },
    {
        "Altitude(m)": 702856.5522694207,
        "Argument of Periapsis(deg)": 0.0073736047681848904,
        "Eccentricity": 0.0,
        "Inclination(deg)": 45.0,
        "Latitude(deg)": 17.60130104072385,
        "Longitude(deg)": -8.883526931536405,
        "Mean Anomaly(deg)": -205.26105974926244,
        "RAAN(deg)": 289.99303953263495,
        "Satellite Name": "Constellation 1 1285",
        "Satellite Number": 1285,
        "Semi-Major Axis(m)": 7083131.272910544,
        "Time(s)": 123
    },
    {
        "Altitude(m)": 702854.1439230691,
        "Argument of Periapsis(deg)": 0.007433552774430298,
        "Eccentricity": 0.0,
        "Inclination(deg)": 45.0,
        "Latitude(deg)": 17.560308211108865,
        "Longitude(deg)": -8.84048659022427,
        "Mean Anomaly(deg)": -205.20035860901254,
        "RAAN(deg)": 289.99298294346943,
        "Satellite Name": "Constellation 1 1285",
        "Satellite Number": 1285,
        "Semi-Major Axis(m)": 7083131.272910544,
        "Time(s)": 124
    },
    {
        "Altitude(m)": 702851.7512824293,
        "Argument of Periapsis(deg)": 0.007493500780675703,
        "Eccentricity": 0.0,
        "Inclination(deg)": 45.0,
        "Latitude(deg)": 17.51930401433732,
        "Longitude(deg)": -8.797467479482307,
        "Mean Anomaly(deg)": -205.1396574687626,
        "RAAN(deg)": 289.99292635430385,
        "Satellite Name": "Constellation 1 1285",
        "Satellite Number": 1285,
        "Semi-Major Axis(m)": 7083131.272910544,
        "Time(s)": 125
    },
    {
        "Altitude(m)": 702849.3743755573,
        "Argument of Periapsis(deg)": 0.007553448786921108,
        "Eccentricity": 0.0,
        "Inclination(deg)": 45.0,
        "Latitude(deg)": 17.478288483642373,
        "Longitude(deg)": -8.754469711034215,
        "Mean Anomaly(deg)": -205.07895632851273,
        "RAAN(deg)": 289.99286976513827,
        "Satellite Name": "Constellation 1 1285",
        "Satellite Number": 1285,
        "Semi-Major Axis(m)": 7083131.272910544,
        "Time(s)": 126
    },
    {
        "Altitude(m)": 702847.0132304641,
        "Argument of Periapsis(deg)": 0.007613396793166514,
        "Eccentricity": 0.0,
        "Inclination(deg)": 45.0,
        "Latitude(deg)": 17.437261652216286,
        "Longitude(deg)": -8.711492892343424,
        "Mean Anomaly(deg)": -205.0182551882628,
        "RAAN(deg)": 289.9928131759727,
        "Satellite Name": "Constellation 1 1285",
        "Satellite Number": 1285,
        "Semi-Major Axis(m)": 7083131.272910544,
        "Time(s)": 127
    },
    {
        "Altitude(m)": 702844.6678750847,
        "Argument of Periapsis(deg)": 0.007673344799411918,
        "Eccentricity": 0.0,
        "Inclination(deg)": 45.0,
        "Latitude(deg)": 17.396223553209182,
        "Longitude(deg)": -8.668537135195582,
        "Mean Anomaly(deg)": -204.95755404801292,
        "RAAN(deg)": 289.9927565868071,
        "Satellite Name": "Constellation 1 1285",
        "Satellite Number": 1285,
        "Semi-Major Axis(m)": 7083131.272910544,
        "Time(s)": 128
    },
    {
        "Altitude(m)": 702842.3383373056,
        "Argument of Periapsis(deg)": 0.007733292805657325,
        "Eccentricity": 0.0,
        "Inclination(deg)": 45.0,
        "Latitude(deg)": 17.35517421972979,
        "Longitude(deg)": -8.625602383310067,
        "Mean Anomaly(deg)": -204.89685290776305,
        "RAAN(deg)": 289.9926999976416,
        "Satellite Name": "Constellation 1 1285",
        "Satellite Number": 1285,
        "Semi-Major Axis(m)": 7083131.272910544,
        "Time(s)": 129
    },
    {
        "Altitude(m)": 702840.0246449411,
        "Argument of Periapsis(deg)": 0.00779324081190273,
        "Eccentricity": 0.0,
        "Inclination(deg)": 45.0,
        "Latitude(deg)": 17.314113684845687,
        "Longitude(deg)": -8.582688580437367,
        "Mean Anomaly(deg)": -204.83615176751314,
        "RAAN(deg)": 289.992643408476,
        "Satellite Name": "Constellation 1 1285",
        "Satellite Number": 1285,
        "Semi-Major Axis(m)": 7083131.272910544,
        "Time(s)": 130
    },
    {
        "Altitude(m)": 702837.7268257376,
        "Argument of Periapsis(deg)": 0.007853188818148135,
        "Eccentricity": 0.0,
        "Inclination(deg)": 45.0,
        "Latitude(deg)": 17.273041981583248,
        "Longitude(deg)": -8.539795670358991,
        "Mean Anomaly(deg)": -204.77545062726327,
        "RAAN(deg)": 289.9925868193104,
        "Satellite Name": "Constellation 1 1285",
        "Satellite Number": 1285,
        "Semi-Major Axis(m)": 7083131.272910544,
        "Time(s)": 131
    },
    {
        "Altitude(m)": 702835.4449073876,
        "Argument of Periapsis(deg)": 0.007913136824393542,
        "Eccentricity": 0.0,
        "Inclination(deg)": 45.0,
        "Latitude(deg)": 17.231959142927717,
        "Longitude(deg)": -8.496923596887147,
        "Mean Anomaly(deg)": -204.71474948701334,
        "RAAN(deg)": 289.99253023014484,
        "Satellite Name": "Constellation 1 1285",
        "Satellite Number": 1285,
        "Semi-Major Axis(m)": 7083131.272910544,
        "Time(s)": 132
    }
]